KUIPER-00053            
1 64513U 25134P   25239.62179727  .00035104  00000+0  95198-3 0  9993
2 64513  51.8792  16.2581 0002561 327.5809  32.5021 15.37294137 11269
KUIPER-00054            
1 64514U 25134Q   25239.56430472  .00044586  00000+0  12071-2 0  9996
2 64514  51.8785  16.6179 0004397 337.1951  22.8840 15.37228479 11259
KUIPER-00055            
1 64515U 25134R   25239.60230301  .00017187  00000+0  46594-3 0  9996
2 64515  51.8782  16.1331 0001332 311.1984  48.8888 15.37733310 11262
KUIPER-00056            
1 64516U 25134S   25239.57426739  .00038406  00000+0  10514-2 0  9994
2 64516  51.8769  16.6722 0004104 336.0365  24.0430 15.36955246 11257
KUIPER-00057            
1 64517U 25134T   25239.58335648 -.00002240  00000+0 -68098-4 0  9995
2 64517  51.8763  17.3643 0008475 349.6436  47.7734 15.27921294  5816
KUIPER-00058            
1 64518U 25134U   25239.58890668  .00037254  00000+0  10354-2 0  9995
2 64518  51.8722  16.7550 0005851 341.4574  18.6198 15.36491856 11252
KUIPER-00059            
1 64519U 25134V   25239.54075486  .00037876  00000+0  10110-2 0  9995
2 64519  51.8789  16.4658 0002410 314.4784  45.6005 15.37747779 11259
KUIPER-00060            
1 64520U 25134W   25239.61342444  .00023129  00000+0  62492-3 0  9993
2 64520  51.8789  16.2057 0002800 311.7033  48.3714 15.37634092 11252
