<?xml version="1.0" encoding="UTF-8"?>
<ndm xmlns:xsi="http://www.w3.org/2001/XMLSchema-instance" xsi:noNamespaceSchemaLocation="https://sanaregistry.org/r/ndmxml_unqualified/ndmxml-2.0.0-master-2.0.xsd">
<omm id="CCSDS_OMM_VERS" version="2.0">
<header><CREATION_DATE/><ORIGINATOR/></header><body><segment><metadata><OBJECT_NAME>KUIPER-00053</OBJECT_NAME><OBJECT_ID>2025-134P</OBJECT_ID><CENTER_NAME>EARTH</CENTER_NAME><REF_FRAME>TEME</REF_FRAME><TIME_SYSTEM>UTC</TIME_SYSTEM><MEAN_ELEMENT_THEORY>SGP4</MEAN_ELEMENT_THEORY></metadata><data><meanElements><EPOCH>2025-08-27T14:55:23.284128</EPOCH><MEAN_MOTION>15.37294137</MEAN_MOTION><ECCENTRICITY>.0002561</ECCENTRICITY><INCLINATION>51.8792</INCLINATION><RA_OF_ASC_NODE>16.2581</RA_OF_ASC_NODE><ARG_OF_PERICENTER>327.5809</ARG_OF_PERICENTER><MEAN_ANOMALY>32.5021</MEAN_ANOMALY></meanElements><tleParameters><EPHEMERIS_TYPE>0</EPHEMERIS_TYPE><CLASSIFICATION_TYPE>U</CLASSIFICATION_TYPE><NORAD_CAT_ID>64513</NORAD_CAT_ID><ELEMENT_SET_NO>999</ELEMENT_SET_NO><REV_AT_EPOCH>1126</REV_AT_EPOCH><BSTAR>.95198031E-3</BSTAR><MEAN_MOTION_DOT>.35104E-3</MEAN_MOTION_DOT><MEAN_MOTION_DDOT>0</MEAN_MOTION_DDOT></tleParameters></data></segment></body></omm>
<omm id="CCSDS_OMM_VERS" version="2.0">
<header><CREATION_DATE/><ORIGINATOR/></header><body><segment><metadata><OBJECT_NAME>KUIPER-00054</OBJECT_NAME><OBJECT_ID>2025-134Q</OBJECT_ID><CENTER_NAME>EARTH</CENTER_NAME><REF_FRAME>TEME</REF_FRAME><TIME_SYSTEM>UTC</TIME_SYSTEM><MEAN_ELEMENT_THEORY>SGP4</MEAN_ELEMENT_THEORY></metadata><data><meanElements><EPOCH>2025-08-27T13:32:35.927808</EPOCH><MEAN_MOTION>15.37228479</MEAN_MOTION><ECCENTRICITY>.00043972</ECCENTRICITY><INCLINATION>51.8785</INCLINATION><RA_OF_ASC_NODE>16.6179</RA_OF_ASC_NODE><ARG_OF_PERICENTER>337.1951</ARG_OF_PERICENTER><MEAN_ANOMALY>22.8840</MEAN_ANOMALY></meanElements><tleParameters><EPHEMERIS_TYPE>0</EPHEMERIS_TYPE><CLASSIFICATION_TYPE>U</CLASSIFICATION_TYPE><NORAD_CAT_ID>64514</NORAD_CAT_ID><ELEMENT_SET_NO>999</ELEMENT_SET_NO><REV_AT_EPOCH>1125</REV_AT_EPOCH><BSTAR>.12071485E-2</BSTAR><MEAN_MOTION_DOT>.44586E-3</MEAN_MOTION_DOT><MEAN_MOTION_DDOT>0</MEAN_MOTION_DDOT></tleParameters></data></segment></body></omm>
<omm id="CCSDS_OMM_VERS" version="2.0">
<header><CREATION_DATE/><ORIGINATOR/></header><body><segment><metadata><OBJECT_NAME>KUIPER-00055</OBJECT_NAME><OBJECT_ID>2025-134R</OBJECT_ID><CENTER_NAME>EARTH</CENTER_NAME><REF_FRAME>TEME</REF_FRAME><TIME_SYSTEM>UTC</TIME_SYSTEM><MEAN_ELEMENT_THEORY>SGP4</MEAN_ELEMENT_THEORY></metadata><data><meanElements><EPOCH>2025-08-27T14:27:18.980064</EPOCH><MEAN_MOTION>15.37733310</MEAN_MOTION><ECCENTRICITY>.00013321</ECCENTRICITY><INCLINATION>51.8782</INCLINATION><RA_OF_ASC_NODE>16.1331</RA_OF_ASC_NODE><ARG_OF_PERICENTER>311.1984</ARG_OF_PERICENTER><MEAN_ANOMALY>48.8888</MEAN_ANOMALY></meanElements><tleParameters><EPHEMERIS_TYPE>0</EPHEMERIS_TYPE><CLASSIFICATION_TYPE>U</CLASSIFICATION_TYPE><NORAD_CAT_ID>64515</NORAD_CAT_ID><ELEMENT_SET_NO>999</ELEMENT_SET_NO><REV_AT_EPOCH>1126</REV_AT_EPOCH><BSTAR>.4659364E-3</BSTAR><MEAN_MOTION_DOT>.17187E-3</MEAN_MOTION_DOT><MEAN_MOTION_DDOT>0</MEAN_MOTION_DDOT></tleParameters></data></segment></body></omm>
<omm id="CCSDS_OMM_VERS" version="2.0">
<header><CREATION_DATE/><ORIGINATOR/></header><body><segment><metadata><OBJECT_NAME>KUIPER-00056</OBJECT_NAME><OBJECT_ID>2025-134S</OBJECT_ID><CENTER_NAME>EARTH</CENTER_NAME><REF_FRAME>TEME</REF_FRAME><TIME_SYSTEM>UTC</TIME_SYSTEM><MEAN_ELEMENT_THEORY>SGP4</MEAN_ELEMENT_THEORY></metadata><data><meanElements><EPOCH>2025-08-27T13:46:56.702496</EPOCH><MEAN_MOTION>15.36955246</MEAN_MOTION><ECCENTRICITY>.00041041</ECCENTRICITY><INCLINATION>51.8769</INCLINATION><RA_OF_ASC_NODE>16.6722</RA_OF_ASC_NODE><ARG_OF_PERICENTER>336.0365</ARG_OF_PERICENTER><MEAN_ANOMALY>24.0430</MEAN_ANOMALY></meanElements><tleParameters><EPHEMERIS_TYPE>0</EPHEMERIS_TYPE><CLASSIFICATION_TYPE>U</CLASSIFICATION_TYPE><NORAD_CAT_ID>64516</NORAD_CAT_ID><ELEMENT_SET_NO>999</ELEMENT_SET_NO><REV_AT_EPOCH>1125</REV_AT_EPOCH><BSTAR>.10513725E-2</BSTAR><MEAN_MOTION_DOT>.38406E-3</MEAN_MOTION_DOT><MEAN_MOTION_DDOT>0</MEAN_MOTION_DDOT></tleParameters></data></segment></body></omm>
<omm id="CCSDS_OMM_VERS" version="2.0">
<header><CREATION_DATE/><ORIGINATOR/></header><body><segment><metadata><OBJECT_NAME>KUIPER-00057</OBJECT_NAME><OBJECT_ID>2025-134T</OBJECT_ID><CENTER_NAME>EARTH</CENTER_NAME><REF_FRAME>TEME</REF_FRAME><TIME_SYSTEM>UTC</TIME_SYSTEM><MEAN_ELEMENT_THEORY>SGP4</MEAN_ELEMENT_THEORY></metadata><data><meanElements><EPOCH>2025-08-27T14:00:01.999872</EPOCH><MEAN_MOTION>15.27921294</MEAN_MOTION><ECCENTRICITY>.0008475</ECCENTRICITY><INCLINATION>51.8763</INCLINATION><RA_OF_ASC_NODE>17.3643</RA_OF_ASC_NODE><ARG_OF_PERICENTER>349.6436</ARG_OF_PERICENTER><MEAN_ANOMALY>47.7734</MEAN_ANOMALY></meanElements><tleParameters><EPHEMERIS_TYPE>0</EPHEMERIS_TYPE><CLASSIFICATION_TYPE>U</CLASSIFICATION_TYPE><NORAD_CAT_ID>64517</NORAD_CAT_ID><ELEMENT_SET_NO>999</ELEMENT_SET_NO><REV_AT_EPOCH>581</REV_AT_EPOCH><BSTAR>-.68097637E-4</BSTAR><MEAN_MOTION_DOT>-.224E-4</MEAN_MOTION_DOT><MEAN_MOTION_DDOT>0</MEAN_MOTION_DDOT></tleParameters></data></segment></body></omm>
<omm id="CCSDS_OMM_VERS" version="2.0">
<header><CREATION_DATE/><ORIGINATOR/></header><body><segment><metadata><OBJECT_NAME>KUIPER-00058</OBJECT_NAME><OBJECT_ID>2025-134U</OBJECT_ID><CENTER_NAME>EARTH</CENTER_NAME><REF_FRAME>TEME</REF_FRAME><TIME_SYSTEM>UTC</TIME_SYSTEM><MEAN_ELEMENT_THEORY>SGP4</MEAN_ELEMENT_THEORY></metadata><data><meanElements><EPOCH>2025-08-27T14:08:01.537152</EPOCH><MEAN_MOTION>15.36491856</MEAN_MOTION><ECCENTRICITY>.00058512</ECCENTRICITY><INCLINATION>51.8722</INCLINATION><RA_OF_ASC_NODE>16.7550</RA_OF_ASC_NODE><ARG_OF_PERICENTER>341.4574</ARG_OF_PERICENTER><MEAN_ANOMALY>18.6198</MEAN_ANOMALY></meanElements><tleParameters><EPHEMERIS_TYPE>0</EPHEMERIS_TYPE><CLASSIFICATION_TYPE>U</CLASSIFICATION_TYPE><NORAD_CAT_ID>64518</NORAD_CAT_ID><ELEMENT_SET_NO>999</ELEMENT_SET_NO><REV_AT_EPOCH>1125</REV_AT_EPOCH><BSTAR>.10353839E-2</BSTAR><MEAN_MOTION_DOT>.37254E-3</MEAN_MOTION_DOT><MEAN_MOTION_DDOT>0</MEAN_MOTION_DDOT></tleParameters></data></segment></body></omm>
<omm id="CCSDS_OMM_VERS" version="2.0">
<header><CREATION_DATE/><ORIGINATOR/></header><body><segment><metadata><OBJECT_NAME>KUIPER-00059</OBJECT_NAME><OBJECT_ID>2025-134V</OBJECT_ID><CENTER_NAME>EARTH</CENTER_NAME><REF_FRAME>TEME</REF_FRAME><TIME_SYSTEM>UTC</TIME_SYSTEM><MEAN_ELEMENT_THEORY>SGP4</MEAN_ELEMENT_THEORY></metadata><data><meanElements><EPOCH>2025-08-27T12:58:41.219904</EPOCH><MEAN_MOTION>15.37747779</MEAN_MOTION><ECCENTRICITY>.00024103</ECCENTRICITY><INCLINATION>51.8789</INCLINATION><RA_OF_ASC_NODE>16.4658</RA_OF_ASC_NODE><ARG_OF_PERICENTER>314.4784</ARG_OF_PERICENTER><MEAN_ANOMALY>45.6005</MEAN_ANOMALY></meanElements><tleParameters><EPHEMERIS_TYPE>0</EPHEMERIS_TYPE><CLASSIFICATION_TYPE>U</CLASSIFICATION_TYPE><NORAD_CAT_ID>64519</NORAD_CAT_ID><ELEMENT_SET_NO>999</ELEMENT_SET_NO><REV_AT_EPOCH>1125</REV_AT_EPOCH><BSTAR>.10110426E-2</BSTAR><MEAN_MOTION_DOT>.37876E-3</MEAN_MOTION_DOT><MEAN_MOTION_DDOT>0</MEAN_MOTION_DDOT></tleParameters></data></segment></body></omm>
<omm id="CCSDS_OMM_VERS" version="2.0">
<header><CREATION_DATE/><ORIGINATOR/></header><body><segment><metadata><OBJECT_NAME>KUIPER-00060</OBJECT_NAME><OBJECT_ID>2025-134W</OBJECT_ID><CENTER_NAME>EARTH</CENTER_NAME><REF_FRAME>TEME</REF_FRAME><TIME_SYSTEM>UTC</TIME_SYSTEM><MEAN_ELEMENT_THEORY>SGP4</MEAN_ELEMENT_THEORY></metadata><data><meanElements><EPOCH>2025-08-27T14:43:19.871616</EPOCH><MEAN_MOTION>15.37634092</MEAN_MOTION><ECCENTRICITY>.00028</ECCENTRICITY><INCLINATION>51.8789</INCLINATION><RA_OF_ASC_NODE>16.2057</RA_OF_ASC_NODE><ARG_OF_PERICENTER>311.7033</ARG_OF_PERICENTER><MEAN_ANOMALY>48.3714</MEAN_ANOMALY></meanElements><tleParameters><EPHEMERIS_TYPE>0</EPHEMERIS_TYPE><CLASSIFICATION_TYPE>U</CLASSIFICATION_TYPE><NORAD_CAT_ID>64520</NORAD_CAT_ID><ELEMENT_SET_NO>999</ELEMENT_SET_NO><REV_AT_EPOCH>1125</REV_AT_EPOCH><BSTAR>.62492168E-3</BSTAR><MEAN_MOTION_DOT>.23129E-3</MEAN_MOTION_DOT><MEAN_MOTION_DDOT>0</MEAN_MOTION_DDOT></tleParameters></data></segment></body></omm>

</ndm>
